{
  "type": "FeatureCollection",
  "features": [
    {
      "type": "Feature",
      "properties": {
        "norad_id": 35671,
        "name": "COSMOS 2251 DEB",
        "group": "cosmos-2251-debris",
        "lat": 60.41016227855396,
        "lon": -156.92625098770932,
        "alt_km": 734.6245694094969,
        "timestamp": "2025-12-26T13:39:19.376547+00:00",
        "meta_object_name": "COSMOS 2251 DEB",
        "meta_object_id": "1993-036APN",
        "meta_epoch": "2025-12-25T14:36:47.670048",
        "meta_mean_motion": 14.48368538,
        "meta_eccentricity": 0.0041274,
        "meta_inclination": 74.0177,
        "meta_ra_of_asc_node": 55.1855,
        "meta_arg_of_pericenter": 227.0867,
        "meta_mean_anomaly": 284.5499,
        "meta_ephemeris_type": 0,
        "meta_classification_type": "U",
        "meta_norad_cat_id": 35671,
        "meta_element_set_no": 999,
        "meta_rev_at_epoch": 86949,
        "meta_bstar": 0.00019838,
        "meta_mean_motion_dot": 7.22e-06,
        "meta_mean_motion_ddot": 0,
        "tle_line1": "1 35671U 93036APN 25359.60888507  .00000722  00000+0  19838-3 0  9991",
        "tle_line2": "2 35671  74.0177  55.1855 0041274 227.0867 284.5499 14.48368538869496"
      },
      "geometry": {
        "type": "Point",
        "coordinates": [
          -156.92625098770932,
          60.41016227855396
        ]
      }
    },
    {
      "type": "Feature",
      "properties": {
        "norad_id": 35674,
        "name": "COSMOS 2251 DEB",
        "group": "cosmos-2251-debris",
        "lat": -67.14785599378003,
        "lon": -112.29530781226688,
        "alt_km": 669.8449427946989,
        "timestamp": "2025-12-26T13:39:19.376569+00:00",
        "meta_object_name": "COSMOS 2251 DEB",
        "meta_object_id": "1993-036APR",
        "meta_epoch": "2025-12-24T19:03:54.003456",
        "meta_mean_motion": 14.54389628,
        "meta_eccentricity": 0.00963199,
        "meta_inclination": 74.0626,
        "meta_ra_of_asc_node": 293.7457,
        "meta_arg_of_pericenter": 335.7924,
        "meta_mean_anomaly": 23.8726,
        "meta_ephemeris_type": 0,
        "meta_classification_type": "U",
        "meta_norad_cat_id": 35674,
        "meta_element_set_no": 999,
        "meta_rev_at_epoch": 86286,
        "meta_bstar": 0.0018628076,
        "meta_mean_motion_dot": 8.404e-05,
        "meta_mean_motion_ddot": 0,
        "tle_line1": "1 35674U 93036APR 25358.79437504  .00008404  00000+0  18628-2 0  9990",
        "tle_line2": "2 35674  74.0626 293.7457 0096319 335.7924  23.8726 14.54389628862868"
      },
      "geometry": {
        "type": "Point",
        "coordinates": [
          -112.29530781226688,
          -67.14785599378003
        ]
      }
    },
    {
      "type": "Feature",
      "properties": {
        "norad_id": 35701,
        "name": "COSMOS 2251 DEB",
        "group": "cosmos-2251-debris",
        "lat": -1.6069787676200085,
        "lon": 99.59115826847092,
        "alt_km": 841.5307753081634,
        "timestamp": "2025-12-26T13:39:19.376580+00:00",
        "meta_object_name": "COSMOS 2251 DEB",
        "meta_object_id": "1993-036APW",
        "meta_epoch": "2025-12-23T03:05:16.939392",
        "meta_mean_motion": 13.80906206,
        "meta_eccentricity": 0.0288749,
        "meta_inclination": 74.0066,
        "meta_ra_of_asc_node": 284.9129,
        "meta_arg_of_pericenter": 131.8115,
        "meta_mean_anomaly": 230.8064,
        "meta_ephemeris_type": 0,
        "meta_classification_type": "U",
        "meta_norad_cat_id": 35701,
        "meta_element_set_no": 999,
        "meta_rev_at_epoch": 62302,
        "meta_bstar": 0.0013474955,
        "meta_mean_motion_dot": 1.927e-05,
        "meta_mean_motion_ddot": 0,
        "tle_line1": "1 35701U 93036APW 25357.12866828  .00001927  00000+0  13475-2 0  9990",
        "tle_line2": "2 35701  74.0066 284.9129 0288749 131.8115 230.8064 13.80906206623025"
      },
      "geometry": {
        "type": "Point",
        "coordinates": [
          99.59115826847092,
          -1.6069787676200085
        ]
      }
    },
    {
      "type": "Feature",
      "properties": {
        "norad_id": 35703,
        "name": "COSMOS 2251 DEB",
        "group": "cosmos-2251-debris",
        "lat": -60.7039941387494,
        "lon": -134.2525037484909,
        "alt_km": 646.4041144089097,
        "timestamp": "2025-12-26T13:39:19.376590+00:00",
        "meta_object_name": "COSMOS 2251 DEB",
        "meta_object_id": "1993-036APY",
        "meta_epoch": "2025-12-24T09:00:55.190592",
        "meta_mean_motion": 14.90483201,
        "meta_eccentricity": 0.00644143,
        "meta_inclination": 74.0417,
        "meta_ra_of_asc_node": 19.4725,
        "meta_arg_of_pericenter": 85.5638,
        "meta_mean_anomaly": 275.2899,
        "meta_ephemeris_type": 0,
        "meta_classification_type": "U",
        "meta_norad_cat_id": 35703,
        "meta_element_set_no": 999,
        "meta_rev_at_epoch": 66789,
        "meta_bstar": 0.00063398121,
        "meta_mean_motion_dot": 6.404e-05,
        "meta_mean_motion_ddot": 0,
        "tle_line1": "1 35703U 93036APY 25358.37563878  .00006404  00000+0  63398-3 0  9994",
        "tle_line2": "2 35703  74.0417  19.4725 0064414  85.5638 275.2899 14.90483201667895"
      },
      "geometry": {
        "type": "Point",
        "coordinates": [
          -134.2525037484909,
          -60.7039941387494
        ]
      }
    },
    {
      "type": "Feature",
      "properties": {
        "norad_id": 35705,
        "name": "COSMOS 2251 DEB",
        "group": "cosmos-2251-debris",
        "lat": -31.69087012275817,
        "lon": -60.68739708690712,
        "alt_km": 680.4710516270097,
        "timestamp": "2025-12-26T13:39:19.376601+00:00",
        "meta_object_name": "COSMOS 2251 DEB",
        "meta_object_id": "1993-036AQA",
        "meta_epoch": "2025-12-21T00:37:19.012800",
        "meta_mean_motion": 14.72474593,
        "meta_eccentricity": 0.00333276,
        "meta_inclination": 74.2752,
        "meta_ra_of_asc_node": 119.9236,
        "meta_arg_of_pericenter": 64.9174,
        "meta_mean_anomaly": 295.5452,
        "meta_ephemeris_type": 0,
        "meta_classification_type": "U",
        "meta_norad_cat_id": 35705,
        "meta_element_set_no": 999,
        "meta_rev_at_epoch": 86048,
        "meta_bstar": 0.0022061245,
        "meta_mean_motion_dot": 0.00014123,
        "meta_mean_motion_ddot": 0,
        "tle_line1": "1 35705U 93036AQA 25355.02591450  .00014123  00000+0  22061-2 0  9990",
        "tle_line2": "2 35705  74.2752 119.9236 0033327  64.9174 295.5452 14.72474593860483"
      },
      "geometry": {
        "type": "Point",
        "coordinates": [
          -60.68739708690712,
          -31.69087012275817
        ]
      }
    },
    {
      "type": "Feature",
      "properties": {
        "norad_id": 35706,
        "name": "COSMOS 2251 DEB",
        "group": "cosmos-2251-debris",
        "lat": -36.878669712573064,
        "lon": -127.5121687086954,
        "alt_km": 1181.3763979748937,
        "timestamp": "2025-12-26T13:39:19.376611+00:00",
        "meta_object_name": "COSMOS 2251 DEB",
        "meta_object_id": "1993-036AQB",
        "meta_epoch": "2025-12-21T09:35:04.200288",
        "meta_mean_motion": 13.65940195,
        "meta_eccentricity": 0.03399329,
        "meta_inclination": 73.889,
        "meta_ra_of_asc_node": 48.5024,
        "meta_arg_of_pericenter": 96.6435,
        "meta_mean_anomaly": 267.3485,
        "meta_ephemeris_type": 0,
        "meta_classification_type": "U",
        "meta_norad_cat_id": 35706,
        "meta_element_set_no": 999,
        "meta_rev_at_epoch": 62180,
        "meta_bstar": 0.00062720687,
        "meta_mean_motion_dot": 7.46e-06,
        "meta_mean_motion_ddot": 0,
        "tle_line1": "1 35706U 93036AQB 25355.39935417  .00000746  00000+0  62721-3 0  9990",
        "tle_line2": "2 35706  73.8890  48.5024 0339932  96.6435 267.3485 13.65940195621808"
      },
      "geometry": {
        "type": "Point",
        "coordinates": [
          -127.5121687086954,
          -36.878669712573064
        ]
      }
    },
    {
      "type": "Feature",
      "properties": {
        "norad_id": 35711,
        "name": "COSMOS 2251 DEB",
        "group": "cosmos-2251-debris",
        "lat": 58.35973879571114,
        "lon": -13.744192996763047,
        "alt_km": 734.9587951345411,
        "timestamp": "2025-12-26T13:39:19.376622+00:00",
        "meta_object_name": "COSMOS 2251 DEB",
        "meta_object_id": "1993-036AQG",
        "meta_epoch": "2025-12-26T06:33:16.354080",
        "meta_mean_motion": 14.63833962,
        "meta_eccentricity": 0.00856089,
        "meta_inclination": 74.0438,
        "meta_ra_of_asc_node": 194.4903,
        "meta_arg_of_pericenter": 292.4398,
        "meta_mean_anomaly": 66.7719,
        "meta_ephemeris_type": 0,
        "meta_classification_type": "U",
        "meta_norad_cat_id": 35711,
        "meta_element_set_no": 999,
        "meta_rev_at_epoch": 87969,
        "meta_bstar": 0.00022438699,
        "meta_mean_motion_dot": 1.201e-05,
        "meta_mean_motion_ddot": 0,
        "tle_line1": "1 35711U 93036AQG 25360.27310595  .00001201  00000+0  22439-3 0  9992",
        "tle_line2": "2 35711  74.0438 194.4903 0085608 292.4398  66.7719 14.63833962879699"
      },
      "geometry": {
        "type": "Point",
        "coordinates": [
          -13.744192996763047,
          58.35973879571114
        ]
      }
    }
  ]
}